[{"OBJECT_NAME":"GRBBETA","OBJECT_ID":"2024-128C","EPOCH":"2026-03-14T18:05:34.344672","MEAN_MOTION":15.05863437,"ECCENTRICITY":0.00509377,"INCLINATION":61.9898,"RA_OF_ASC_NODE":187.3918,"ARG_OF_PERICENTER":115.0395,"MEAN_ANOMALY":245.5998,"EPHEMERIS_TYPE":0,"CLASSIFICATION_TYPE":"U","NORAD_CAT_ID":60237,"ELEMENT_SET_NO":999,"REV_AT_EPOCH":9204,"BSTAR":0.00046484343,"MEAN_MOTION_DOT":6.77e-5,"MEAN_MOTION_DDOT":0},{"OBJECT_NAME":"OOV-CUBE (TUBSAT-30)","OBJECT_ID":"2024-128F","EPOCH":"2026-03-14T19:42:41.834592","MEAN_MOTION":15.02295176,"ECCENTRICITY":0.00540903,"INCLINATION":61.9949,"RA_OF_ASC_NODE":194.5051,"ARG_OF_PERICENTER":113.3874,"MEAN_ANOMALY":247.2919,"EPHEMERIS_TYPE":0,"CLASSIFICATION_TYPE":"U","NORAD_CAT_ID":60240,"ELEMENT_SET_NO":999,"REV_AT_EPOCH":9193,"BSTAR":0.00030018279,"MEAN_MOTION_DOT":3.896e-5,"MEAN_MOTION_DDOT":0},{"OBJECT_NAME":"ROBUSTA-3A (MEDITERRANEE)","OBJECT_ID":"2024-128J","EPOCH":"2026-03-15T00:40:12.806400","MEAN_MOTION":15.10206811,"ECCENTRICITY":0.00512155,"INCLINATION":61.9864,"RA_OF_ASC_NODE":180.8517,"ARG_OF_PERICENTER":109.2496,"MEAN_ANOMALY":251.4149,"EPHEMERIS_TYPE":0,"CLASSIFICATION_TYPE":"U","NORAD_CAT_ID":60243,"ELEMENT_SET_NO":999,"REV_AT_EPOCH":9219,"BSTAR":0.00076797803,"MEAN_MOTION_DOT":0.0001281,"MEAN_MOTION_DDOT":0},{"OBJECT_NAME":"LASARSAT","OBJECT_ID":"2024-247Q","EPOCH":"2026-03-14T06:57:18.779616","MEAN_MOTION":15.40492839,"ECCENTRICITY":0.00021589,"INCLINATION":44.9755,"RA_OF_ASC_NODE":73.1375,"ARG_OF_PERICENTER":85.8847,"MEAN_ANOMALY":274.2287,"EPHEMERIS_TYPE":0,"CLASSIFICATION_TYPE":"U","NORAD_CAT_ID":62391,"ELEMENT_SET_NO":999,"REV_AT_EPOCH":6865,"BSTAR":0.00093019142,"MEAN_MOTION_DOT":0.00038386,"MEAN_MOTION_DDOT":0},{"OBJECT_NAME":"CROCUBE","OBJECT_ID":"2024-247T","EPOCH":"2026-03-14T16:54:59.796000","MEAN_MOTION":15.41712327,"ECCENTRICITY":0.00017297,"INCLINATION":44.973,"RA_OF_ASC_NODE":69.3943,"ARG_OF_PERICENTER":76.3761,"MEAN_ANOMALY":283.732,"EPHEMERIS_TYPE":0,"CLASSIFICATION_TYPE":"U","NORAD_CAT_ID":62394,"ELEMENT_SET_NO":999,"REV_AT_EPOCH":6873,"BSTAR":0.0011438911,"MEAN_MOTION_DOT":0.00049321,"MEAN_MOTION_DDOT":0}]
