GRBBETA                 
1 60237U 24128C   26073.75386973  .00006770  00000+0  46484-3 0  9999
2 60237  61.9898 187.3918 0050937 115.0395 245.5998 15.05863437 92045
OOV-CUBE (TUBSAT-30)    
1 60240U 24128F   26073.82131753  .00003896  00000+0  30018-3 0  9997
2 60240  61.9949 194.5051 0054090 113.3874 247.2919 15.02295176 91936
ROBUSTA-3A (MEDITERRAN*)
1 60243U 24128J   26074.02792600  .00012810  00000+0  76798-3 0  9998
2 60243  61.9864 180.8517 0051215 109.2496 251.4149 15.10206811 92198
LASARSAT                
1 62391U 24247Q   26073.28980069  .00038386  00000+0  93019-3 0  9992
2 62391  44.9755  73.1375 0002158  85.8847 274.2287 15.40492839 68651
CROCUBE                 
1 62394U 24247T   26073.70485875  .00049321  00000+0  11439-2 0  9993
2 62394  44.9730  69.3943 0001729  76.3761 283.7320 15.41712327 68738
